[{"OBJECT_NAME":"STARLINK-31505","OBJECT_ID":"2024-049G","EPOCH":"2026-03-09T09:59:08.022912","MEAN_MOTION":15.27615839,"ECCENTRICITY":0.00014869,"INCLINATION":43.0013,"RA_OF_ASC_NODE":145.1422,"ARG_OF_PERICENTER":273.5446,"MEAN_ANOMALY":86.5236,"EPHEMERIS_TYPE":0,"CLASSIFICATION_TYPE":"U","NORAD_CAT_ID":59237,"ELEMENT_SET_NO":999,"REV_AT_EPOCH":11236,"BSTAR":7.2801246e-5,"MEAN_MOTION_DOT":1.744e-5,"MEAN_MOTION_DDOT":0},{"OBJECT_NAME":"FLOCK 4G-26","OBJECT_ID":"2025-009AA","EPOCH":"2026-03-09T19:19:02.910720","MEAN_MOTION":15.27281631,"ECCENTRICITY":0.0001988,"INCLINATION":97.4054,"RA_OF_ASC_NODE":151.3913,"ARG_OF_PERICENTER":299.1273,"MEAN_ANOMALY":60.9767,"EPHEMERIS_TYPE":0,"CLASSIFICATION_TYPE":"U","NORAD_CAT_ID":62633,"ELEMENT_SET_NO":999,"REV_AT_EPOCH":6373,"BSTAR":0.00042468806,"MEAN_MOTION_DOT":0.00011283,"MEAN_MOTION_DDOT":0}]
